IXPE                    
1 49954U 21121A   24155.91667824  .00005490  00000+0  38410-3 0  9994
2 49954   0.2285 131.8497 0009409  81.1796 187.8845 14.98069586135902
